[{"OBJECT_NAME":"PLEIADES 1B","OBJECT_ID":"2012-068A","EPOCH":"2026-03-09T22:47:56.825664","MEAN_MOTION":14.5852732,"ECCENTRICITY":0.0001609,"INCLINATION":98.2009,"RA_OF_ASC_NODE":145.3433,"ARG_OF_PERICENTER":85.836,"MEAN_ANOMALY":274.3023,"EPHEMERIS_TYPE":0,"CLASSIFICATION_TYPE":"U","NORAD_CAT_ID":39019,"ELEMENT_SET_NO":999,"REV_AT_EPOCH":70638,"BSTAR":0.0001012296,"MEAN_MOTION_DOT":4.25e-6,"MEAN_MOTION_DDOT":0},{"OBJECT_NAME":"CZ-4 DEB","OBJECT_ID":"1990-081BQ","EPOCH":"2026-03-09T13:36:03.939264","MEAN_MOTION":14.59816899,"ECCENTRICITY":0.00166496,"INCLINATION":98.4159,"RA_OF_ASC_NODE":79.8959,"ARG_OF_PERICENTER":42.9659,"MEAN_ANOMALY":74.2563,"EPHEMERIS_TYPE":0,"CLASSIFICATION_TYPE":"U","NORAD_CAT_ID":20904,"ELEMENT_SET_NO":999,"REV_AT_EPOCH":84387,"BSTAR":0.0015727989,"MEAN_MOTION_DOT":7.489e-5,"MEAN_MOTION_DDOT":0}]
